[{"OBJECT_NAME":"ISS (ZARYA)","OBJECT_ID":"1998-067A","EPOCH":"2026-03-14T10:01:48.497952","MEAN_MOTION":15.48274195,"ECCENTRICITY":0.00063896,"INCLINATION":51.6328,"RA_OF_ASC_NODE":48.9797,"ARG_OF_PERICENTER":189.638,"MEAN_ANOMALY":170.4486,"EPHEMERIS_TYPE":0,"CLASSIFICATION_TYPE":"U","NORAD_CAT_ID":25544,"ELEMENT_SET_NO":999,"REV_AT_EPOCH":55706,"BSTAR":0.00019399232,"MEAN_MOTION_DOT":9.99e-5,"MEAN_MOTION_DDOT":0},{"OBJECT_NAME":"POISK","OBJECT_ID":"2009-060A","EPOCH":"2026-03-14T10:01:48.497952","MEAN_MOTION":15.48274195,"ECCENTRICITY":0.00063896,"INCLINATION":51.6328,"RA_OF_ASC_NODE":48.9797,"ARG_OF_PERICENTER":189.638,"MEAN_ANOMALY":170.4486,"EPHEMERIS_TYPE":0,"CLASSIFICATION_TYPE":"U","NORAD_CAT_ID":36086,"ELEMENT_SET_NO":999,"REV_AT_EPOCH":55444,"BSTAR":0.00019399232,"MEAN_MOTION_DOT":9.99e-5,"MEAN_MOTION_DDOT":0},{"OBJECT_NAME":"CSS (TIANHE)","OBJECT_ID":"2021-035A","EPOCH":"2026-03-14T00:03:53.258400","MEAN_MOTION":15.6090469,"ECCENTRICITY":0.0006689,"INCLINATION":41.4663,"RA_OF_ASC_NODE":181.9138,"ARG_OF_PERICENTER":299.3968,"MEAN_ANOMALY":60.6202,"EPHEMERIS_TYPE":0,"CLASSIFICATION_TYPE":"U","NORAD_CAT_ID":48274,"ELEMENT_SET_NO":999,"REV_AT_EPOCH":27828,"BSTAR":0.00034787289,"MEAN_MOTION_DOT":0.00029757,"MEAN_MOTION_DDOT":0},{"OBJECT_NAME":"ISS (NAUKA)","OBJECT_ID":"2021-066A","EPOCH":"2026-03-14T10:01:48.497952","MEAN_MOTION":15.48274195,"ECCENTRICITY":0.00063896,"INCLINATION":51.6328,"RA_OF_ASC_NODE":48.9797,"ARG_OF_PERICENTER":189.638,"MEAN_ANOMALY":170.4486,"EPHEMERIS_TYPE":0,"CLASSIFICATION_TYPE":"U","NORAD_CAT_ID":49044,"ELEMENT_SET_NO":999,"REV_AT_EPOCH":55445,"BSTAR":0.00019399232,"MEAN_MOTION_DOT":9.99e-5,"MEAN_MOTION_DDOT":0},{"OBJECT_NAME":"FREGAT DEB","OBJECT_ID":"2011-037PF","EPOCH":"2026-03-12T23:42:33.297696","MEAN_MOTION":12.40314724,"ECCENTRICITY":0.09615585,"INCLINATION":51.6525,"RA_OF_ASC_NODE":290.8604,"ARG_OF_PERICENTER":66.9712,"MEAN_ANOMALY":302.9578,"EPHEMERIS_TYPE":0,"CLASSIFICATION_TYPE":"U","NORAD_CAT_ID":49271,"ELEMENT_SET_NO":999,"REV_AT_EPOCH":21310,"BSTAR":0.027402908,"MEAN_MOTION_DOT":0.00019193,"MEAN_MOTION_DDOT":0},{"OBJECT_NAME":"CSS (WENTIAN)","OBJECT_ID":"2022-085A","EPOCH":"2026-03-14T00:03:53.258400","MEAN_MOTION":15.6090469,"ECCENTRICITY":0.0006689,"INCLINATION":41.4663,"RA_OF_ASC_NODE":181.9138,"ARG_OF_PERICENTER":299.3968,"MEAN_ANOMALY":60.6202,"EPHEMERIS_TYPE":0,"CLASSIFICATION_TYPE":"U","NORAD_CAT_ID":53239,"ELEMENT_SET_NO":999,"REV_AT_EPOCH":27561,"BSTAR":0.00034787289,"MEAN_MOTION_DOT":0.00029757,"MEAN_MOTION_DDOT":0},{"OBJECT_NAME":"CSS (MENGTIAN)","OBJECT_ID":"2022-143A","EPOCH":"2026-03-14T00:03:53.258400","MEAN_MOTION":15.6090469,"ECCENTRICITY":0.0006689,"INCLINATION":41.4663,"RA_OF_ASC_NODE":181.9138,"ARG_OF_PERICENTER":299.3968,"MEAN_ANOMALY":60.6202,"EPHEMERIS_TYPE":0,"CLASSIFICATION_TYPE":"U","NORAD_CAT_ID":54216,"ELEMENT_SET_NO":999,"REV_AT_EPOCH":27558,"BSTAR":0.00034787289,"MEAN_MOTION_DOT":0.00029757,"MEAN_MOTION_DDOT":0},{"OBJECT_NAME":"PROGRESS-MS 31","OBJECT_ID":"2025-146A","EPOCH":"2026-03-14T10:01:48.497952","MEAN_MOTION":15.48274195,"ECCENTRICITY":0.00063896,"INCLINATION":51.6328,"RA_OF_ASC_NODE":48.9797,"ARG_OF_PERICENTER":189.638,"MEAN_ANOMALY":170.4486,"EPHEMERIS_TYPE":0,"CLASSIFICATION_TYPE":"U","NORAD_CAT_ID":64751,"ELEMENT_SET_NO":999,"REV_AT_EPOCH":55446,"BSTAR":0.00019399232,"MEAN_MOTION_DOT":9.99e-5,"MEAN_MOTION_DDOT":0},{"OBJECT_NAME":"TIANZHOU-9","OBJECT_ID":"2025-149A","EPOCH":"2026-03-14T00:03:53.258400","MEAN_MOTION":15.6090469,"ECCENTRICITY":0.0006689,"INCLINATION":41.4663,"RA_OF_ASC_NODE":181.9138,"ARG_OF_PERICENTER":299.3968,"MEAN_ANOMALY":60.6202,"EPHEMERIS_TYPE":0,"CLASSIFICATION_TYPE":"U","NORAD_CAT_ID":64786,"ELEMENT_SET_NO":999,"REV_AT_EPOCH":27559,"BSTAR":0.00034787289,"MEAN_MOTION_DOT":0.00029757,"MEAN_MOTION_DDOT":0},{"OBJECT_NAME":"PROGRESS-MS 32","OBJECT_ID":"2025-204A","EPOCH":"2026-03-14T10:01:48.497952","MEAN_MOTION":15.48274195,"ECCENTRICITY":0.00063896,"INCLINATION":51.6328,"RA_OF_ASC_NODE":48.9797,"ARG_OF_PERICENTER":189.638,"MEAN_ANOMALY":170.4486,"EPHEMERIS_TYPE":0,"CLASSIFICATION_TYPE":"U","NORAD_CAT_ID":65586,"ELEMENT_SET_NO":999,"REV_AT_EPOCH":55450,"BSTAR":0.00019399232,"MEAN_MOTION_DOT":9.99e-5,"MEAN_MOTION_DDOT":0},{"OBJECT_NAME":"CYGNUS NG-23","OBJECT_ID":"2025-208A","EPOCH":"2026-03-14T09:59:46.912416","MEAN_MOTION":15.4997785,"ECCENTRICITY":0.00077822,"INCLINATION":51.6322,"RA_OF_ASC_NODE":48.9706,"ARG_OF_PERICENTER":192.9507,"MEAN_ANOMALY":167.1283,"EPHEMERIS_TYPE":0,"CLASSIFICATION_TYPE":"U","NORAD_CAT_ID":65616,"ELEMENT_SET_NO":999,"REV_AT_EPOCH":32,"BSTAR":0.00024568708,"MEAN_MOTION_DOT":0.0001359,"MEAN_MOTION_DDOT":0},{"OBJECT_NAME":"YOTSUBA-KULOVER","OBJECT_ID":"1998-067XN","EPOCH":"2026-03-14T03:05:10.341888","MEAN_MOTION":15.82666523,"ECCENTRICITY":0.00050705,"INCLINATION":51.6208,"RA_OF_ASC_NODE":34.2332,"ARG_OF_PERICENTER":99.4448,"MEAN_ANOMALY":260.7128,"EPHEMERIS_TYPE":0,"CLASSIFICATION_TYPE":"U","NORAD_CAT_ID":65941,"ELEMENT_SET_NO":999,"REV_AT_EPOCH":2420,"BSTAR":0.0011897655,"MEAN_MOTION_DOT":0.00263043,"MEAN_MOTION_DDOT":0},{"OBJECT_NAME":"E-KAGAKU-1","OBJECT_ID":"1998-067XQ","EPOCH":"2026-03-14T03:13:09.694272","MEAN_MOTION":15.82242031,"ECCENTRICITY":0.00056123,"INCLINATION":51.6234,"RA_OF_ASC_NODE":34.2893,"ARG_OF_PERICENTER":104.4553,"MEAN_ANOMALY":255.7072,"EPHEMERIS_TYPE":0,"CLASSIFICATION_TYPE":"U","NORAD_CAT_ID":65943,"ELEMENT_SET_NO":999,"REV_AT_EPOCH":2420,"BSTAR":0.0011873174,"MEAN_MOTION_DOT":0.00257198,"MEAN_MOTION_DDOT":0},{"OBJECT_NAME":"HRC MONOBLOCK CAMERA","OBJECT_ID":"1998-067XR","EPOCH":"2026-03-14T04:15:32.270112","MEAN_MOTION":15.62729008,"ECCENTRICITY":0.00038093,"INCLINATION":51.6279,"RA_OF_ASC_NODE":42.8744,"ARG_OF_PERICENTER":114.1656,"MEAN_ANOMALY":245.9737,"EPHEMERIS_TYPE":0,"CLASSIFICATION_TYPE":"U","NORAD_CAT_ID":66052,"ELEMENT_SET_NO":999,"REV_AT_EPOCH":2309,"BSTAR":0.00069076573,"MEAN_MOTION_DOT":0.00063248,"MEAN_MOTION_DDOT":0},{"OBJECT_NAME":"HTV-X1","OBJECT_ID":"2025-241A","EPOCH":"2026-03-14T08:15:41.723424","MEAN_MOTION":15.22909432,"ECCENTRICITY":0.00057393,"INCLINATION":51.6357,"RA_OF_ASC_NODE":50.71,"ARG_OF_PERICENTER":187.3646,"MEAN_ANOMALY":172.7248,"EPHEMERIS_TYPE":0,"CLASSIFICATION_TYPE":"U","NORAD_CAT_ID":66174,"ELEMENT_SET_NO":999,"REV_AT_EPOCH":2166,"BSTAR":0.00055060191,"MEAN_MOTION_DOT":0.00012784,"MEAN_MOTION_DDOT":0},{"OBJECT_NAME":"SZ-21 MODULE","OBJECT_ID":"2025-246C","EPOCH":"2026-03-13T13:47:50.452800","MEAN_MOTION":15.68874146,"ECCENTRICITY":0.00010106,"INCLINATION":41.4731,"RA_OF_ASC_NODE":179.4377,"ARG_OF_PERICENTER":309.0341,"MEAN_ANOMALY":51.041,"EPHEMERIS_TYPE":0,"CLASSIFICATION_TYPE":"U","NORAD_CAT_ID":66515,"ELEMENT_SET_NO":999,"REV_AT_EPOCH":1868,"BSTAR":0.00036004804,"MEAN_MOTION_DOT":0.00042463,"MEAN_MOTION_DDOT":0}]
