ISS (ZARYA)             
1 25544U 98067A   26073.41792243  .00009990  00000+0  19399-3 0  9990
2 25544  51.6328  48.9797 0006389 189.6380 170.4486 15.48274195557061
POISK                   
1 36086U 09060A   26073.41792243  .00009990  00000+0  19399-3 0  9998
2 36086  51.6328  48.9797 0006389 189.6380 170.4486 15.48274195554443
CSS (TIANHE)            
1 48274U 21035A   26073.00269975  .00029757  00000+0  34787-3 0  9993
2 48274  41.4663 181.9138 0006689 299.3968  60.6202 15.60904690278280
ISS (NAUKA)             
1 49044U 21066A   26073.41792243  .00009990  00000+0  19399-3 0  9996
2 49044  51.6328  48.9797 0006389 189.6380 170.4486 15.48274195554452
FREGAT DEB              
1 49271U 11037PF  26071.98788539  .00019193  00000+0  27403-1 0  9997
2 49271  51.6525 290.8604 0961558  66.9712 302.9578 12.40314724213102
CSS (WENTIAN)           
1 53239U 22085A   26073.00269975  .00029757  00000+0  34787-3 0  9996
2 53239  41.4663 181.9138 0006689 299.3968  60.6202 15.60904690275611
CSS (MENGTIAN)          
1 54216U 22143A   26073.00269975  .00029757  00000+0  34787-3 0  9997
2 54216  41.4663 181.9138 0006689 299.3968  60.6202 15.60904690275583
PROGRESS-MS 31          
1 64751U 25146A   26073.41792243  .00009990  00000+0  19399-3 0  9991
2 64751  51.6328  48.9797 0006389 189.6380 170.4486 15.48274195554465
TIANZHOU-9              
1 64786U 25149A   26073.00269975  .00029757  00000+0  34787-3 0  9999
2 64786  41.4663 181.9138 0006689 299.3968  60.6202 15.60904690275597
PROGRESS-MS 32          
1 65586U 25204A   26073.41792243  .00009990  00000+0  19399-3 0  9993
2 65586  51.6328  48.9797 0006389 189.6380 170.4486 15.48274195554507
CYGNUS NG-23            
1 65616U 25208A   26073.41651519  .00013590  00000+0  24569-3 0  9997
2 65616  51.6322  48.9706 0007782 192.9507 167.1283 15.49977850   324
YOTSUBA-KULOVER         
1 65941U 98067XN  26073.12859192  .00263043  00000+0  11898-2 0  9996
2 65941  51.6208  34.2332 0005070  99.4448 260.7128 15.82666523 24204
E-KAGAKU-1              
1 65943U 98067XQ  26073.13413998  .00257198  00000+0  11873-2 0  9996
2 65943  51.6234  34.2893 0005612 104.4553 255.7072 15.82242031 24209
HRC MONOBLOCK CAMERA    
1 66052U 98067XR  26073.17745683  .00063248  00000+0  69077-3 0  9992
2 66052  51.6279  42.8744 0003809 114.1656 245.9737 15.62729008 23095
HTV-X1                  
1 66174U 25241A   26073.34423291  .00012784  00000+0  55060-3 0  9994
2 66174  51.6357  50.7100 0005739 187.3646 172.7248 15.22909432 21668
SZ-21 MODULE            
1 66515U 25246C   26072.57488950  .00042463  00000+0  36005-3 0  9990
2 66515  41.4731 179.4377 0001010 309.0341  51.0410 15.68874146 18689
